STARLINK-36390          
1 67886U 26035H   26078.79162120  .00106053  00000+0  70223-3 0  9993
2 67886  97.2859  11.6844 0001135  84.2606 275.8788 15.75218975  5434
STARLINK-36368          
1 67887U 26035J   26078.77366545  .00439345  00000+0  21625-2 0  9993
2 67887  97.2883  11.7061 0001362 128.9413 231.1977 15.81001324  5438
STARLINK-36801          
1 67888U 26035K   26078.77296828 -.00673449  00000+0 -38815-2 0  9996
2 67888  97.2870  11.7063 0002360 100.6270 259.5264 15.80310588  5431
STARLINK-36372          
1 67889U 26035L   26078.91667824 -.00067671  00000+0 -45580-3 0  9993
2 67889  97.2858  11.8550 0001578  89.7633 355.0283 15.75220485  5400
STARLINK-36363          
1 67890U 26035M   26078.78808125  .00091867  00000+0  61089-3 0  9995
2 67890  97.2872  11.6888 0001029  84.0209 276.1174 15.75163340  5439
STARLINK-36816          
1 67891U 26035N   26078.76164214  .00373592  00000+0  18547-2 0  9996
2 67891  97.2882  11.7186 0002123 118.8713 241.2769 15.80982094  5439
STARLINK-36813          
1 67892U 26035P   26078.76617062  .00450836  00000+0  22177-2 0  9992
2 67892  97.2889  11.7105 0001897 124.4201 235.7247 15.80986360  5439
STARLINK-36803          
1 67893U 26035Q   26078.77065912  .00195715  00000+0  99677-3 0  9997
2 67893  97.2883  11.7088 0001252 117.1278 243.0118 15.80881474  5431
STARLINK-36846          
1 67894U 26035R   26078.78983823  .00034854  00000+0  23365-3 0  9996
2 67894  97.2859  11.6836 0000851 119.6411 240.4939 15.75184654  5437
STARLINK-36866          
1 67895U 26035S   26078.91667824  .00010113  00000+0  68576-4 0  9998
2 67895  97.2871  11.8375 0001450  91.4973 311.3065 15.75193765  5406
STARLINK-36877          
1 67896U 26035T   26078.76990655  .00379297  00000+0  18806-2 0  9993
2 67896  97.2885  11.7090 0001675 135.1017 225.0387 15.80995467  5435
STARLINK-36870          
1 67897U 26035U   26078.76764983  .00227009  00000+0  11492-2 0  9994
2 67897  97.2865  11.7101 0002712 119.1607 240.9933 15.80930329  5436
