CCSDS_OMM_VERS = 2.0
CREATION_DATE  = 
ORIGINATOR     = 

OBJECT_NAME    = STARLINK-36390
OBJECT_ID      = 2026-035H
CENTER_NAME    = EARTH
REF_FRAME      = TEME
TIME_SYSTEM    = UTC
MEAN_ELEMENT_THEORY = SGP/SGP4

EPOCH          = 2026-03-19T18:59:56.071680
MEAN_MOTION    = 15.75218975
ECCENTRICITY   = .00011352
INCLINATION    = 97.2859
RA_OF_ASC_NODE = 11.6844
ARG_OF_PERICENTER = 84.2606
MEAN_ANOMALY   = 275.8788

EPHEMERIS_TYPE = 0
CLASSIFICATION_TYPE = U
NORAD_CAT_ID   = 67886
ELEMENT_SET_NO = 999
REV_AT_EPOCH   = 543
BSTAR          = .70222587E-3
MEAN_MOTION_DOT = .106053E-2
MEAN_MOTION_DDOT = 0

CCSDS_OMM_VERS = 2.0
CREATION_DATE  = 
ORIGINATOR     = 

OBJECT_NAME    = STARLINK-36368
OBJECT_ID      = 2026-035J
CENTER_NAME    = EARTH
REF_FRAME      = TEME
TIME_SYSTEM    = UTC
MEAN_ELEMENT_THEORY = SGP/SGP4

EPOCH          = 2026-03-19T18:34:04.694880
MEAN_MOTION    = 15.81001324
ECCENTRICITY   = .0001362
INCLINATION    = 97.2883
RA_OF_ASC_NODE = 11.7061
ARG_OF_PERICENTER = 128.9413
MEAN_ANOMALY   = 231.1977

EPHEMERIS_TYPE = 0
CLASSIFICATION_TYPE = U
NORAD_CAT_ID   = 67887
ELEMENT_SET_NO = 999
REV_AT_EPOCH   = 543
BSTAR          = .21625059E-2
MEAN_MOTION_DOT = .439345E-2
MEAN_MOTION_DDOT = 0

CCSDS_OMM_VERS = 2.0
CREATION_DATE  = 
ORIGINATOR     = 

OBJECT_NAME    = STARLINK-36801
OBJECT_ID      = 2026-035K
CENTER_NAME    = EARTH
REF_FRAME      = TEME
TIME_SYSTEM    = UTC
MEAN_ELEMENT_THEORY = SGP/SGP4

EPOCH          = 2026-03-19T18:33:04.459392
MEAN_MOTION    = 15.80310588
ECCENTRICITY   = .00023606
INCLINATION    = 97.2870
RA_OF_ASC_NODE = 11.7063
ARG_OF_PERICENTER = 100.6270
MEAN_ANOMALY   = 259.5264

EPHEMERIS_TYPE = 0
CLASSIFICATION_TYPE = U
NORAD_CAT_ID   = 67888
ELEMENT_SET_NO = 999
REV_AT_EPOCH   = 543
BSTAR          = -.38815E-2
MEAN_MOTION_DOT = -.673449E-2
MEAN_MOTION_DDOT = 0

CCSDS_OMM_VERS = 2.0
CREATION_DATE  = 
ORIGINATOR     = 

OBJECT_NAME    = STARLINK-36372
OBJECT_ID      = 2026-035L
CENTER_NAME    = EARTH
REF_FRAME      = TEME
TIME_SYSTEM    = UTC
MEAN_ELEMENT_THEORY = SGP/SGP4

EPOCH          = 2026-03-19T22:00:00.999936
MEAN_MOTION    = 15.75220485
ECCENTRICITY   = .00015783
INCLINATION    = 97.2858
RA_OF_ASC_NODE = 11.8550
ARG_OF_PERICENTER = 89.7633
MEAN_ANOMALY   = 355.0283

EPHEMERIS_TYPE = 0
CLASSIFICATION_TYPE = U
NORAD_CAT_ID   = 67889
ELEMENT_SET_NO = 999
REV_AT_EPOCH   = 540
BSTAR          = -.4557996E-3
MEAN_MOTION_DOT = -.67671E-3
MEAN_MOTION_DDOT = 0

CCSDS_OMM_VERS = 2.0
CREATION_DATE  = 
ORIGINATOR     = 

OBJECT_NAME    = STARLINK-36363
OBJECT_ID      = 2026-035M
CENTER_NAME    = EARTH
REF_FRAME      = TEME
TIME_SYSTEM    = UTC
MEAN_ELEMENT_THEORY = SGP/SGP4

EPOCH          = 2026-03-19T18:54:50.220000
MEAN_MOTION    = 15.75163340
ECCENTRICITY   = .00010291
INCLINATION    = 97.2872
RA_OF_ASC_NODE = 11.6888
ARG_OF_PERICENTER = 84.0209
MEAN_ANOMALY   = 276.1174

EPHEMERIS_TYPE = 0
CLASSIFICATION_TYPE = U
NORAD_CAT_ID   = 67890
ELEMENT_SET_NO = 999
REV_AT_EPOCH   = 543
BSTAR          = .61089212E-3
MEAN_MOTION_DOT = .91867E-3
MEAN_MOTION_DDOT = 0

CCSDS_OMM_VERS = 2.0
CREATION_DATE  = 
ORIGINATOR     = 

OBJECT_NAME    = STARLINK-36816
OBJECT_ID      = 2026-035N
CENTER_NAME    = EARTH
REF_FRAME      = TEME
TIME_SYSTEM    = UTC
MEAN_ELEMENT_THEORY = SGP/SGP4

EPOCH          = 2026-03-19T18:16:45.880896
MEAN_MOTION    = 15.80982094
ECCENTRICITY   = .00021233
INCLINATION    = 97.2882
RA_OF_ASC_NODE = 11.7186
ARG_OF_PERICENTER = 118.8713
MEAN_ANOMALY   = 241.2769

EPHEMERIS_TYPE = 0
CLASSIFICATION_TYPE = U
NORAD_CAT_ID   = 67891
ELEMENT_SET_NO = 999
REV_AT_EPOCH   = 543
BSTAR          = .18547313E-2
MEAN_MOTION_DOT = .373592E-2
MEAN_MOTION_DDOT = 0

CCSDS_OMM_VERS = 2.0
CREATION_DATE  = 
ORIGINATOR     = 

OBJECT_NAME    = STARLINK-36813
OBJECT_ID      = 2026-035P
CENTER_NAME    = EARTH
REF_FRAME      = TEME
TIME_SYSTEM    = UTC
MEAN_ELEMENT_THEORY = SGP/SGP4

EPOCH          = 2026-03-19T18:23:17.141568
MEAN_MOTION    = 15.80986360
ECCENTRICITY   = .00018977
INCLINATION    = 97.2889
RA_OF_ASC_NODE = 11.7105
ARG_OF_PERICENTER = 124.4201
MEAN_ANOMALY   = 235.7247

EPHEMERIS_TYPE = 0
CLASSIFICATION_TYPE = U
NORAD_CAT_ID   = 67892
ELEMENT_SET_NO = 999
REV_AT_EPOCH   = 543
BSTAR          = .22176534E-2
MEAN_MOTION_DOT = .450836E-2
MEAN_MOTION_DDOT = 0

CCSDS_OMM_VERS = 2.0
CREATION_DATE  = 
ORIGINATOR     = 

OBJECT_NAME    = STARLINK-36803
OBJECT_ID      = 2026-035Q
CENTER_NAME    = EARTH
REF_FRAME      = TEME
TIME_SYSTEM    = UTC
MEAN_ELEMENT_THEORY = SGP/SGP4

EPOCH          = 2026-03-19T18:29:44.947968
MEAN_MOTION    = 15.80881474
ECCENTRICITY   = .00012521
INCLINATION    = 97.2883
RA_OF_ASC_NODE = 11.7088
ARG_OF_PERICENTER = 117.1278
MEAN_ANOMALY   = 243.0118

EPHEMERIS_TYPE = 0
CLASSIFICATION_TYPE = U
NORAD_CAT_ID   = 67893
ELEMENT_SET_NO = 999
REV_AT_EPOCH   = 543
BSTAR          = .99677454E-3
MEAN_MOTION_DOT = .195715E-2
MEAN_MOTION_DDOT = 0

CCSDS_OMM_VERS = 2.0
CREATION_DATE  = 
ORIGINATOR     = 

OBJECT_NAME    = STARLINK-36846
OBJECT_ID      = 2026-035R
CENTER_NAME    = EARTH
REF_FRAME      = TEME
TIME_SYSTEM    = UTC
MEAN_ELEMENT_THEORY = SGP/SGP4

EPOCH          = 2026-03-19T18:57:22.023072
MEAN_MOTION    = 15.75184654
ECCENTRICITY   = .00008518
INCLINATION    = 97.2859
RA_OF_ASC_NODE = 11.6836
ARG_OF_PERICENTER = 119.6411
MEAN_ANOMALY   = 240.4939

EPHEMERIS_TYPE = 0
CLASSIFICATION_TYPE = U
NORAD_CAT_ID   = 67894
ELEMENT_SET_NO = 999
REV_AT_EPOCH   = 543
BSTAR          = .23364809E-3
MEAN_MOTION_DOT = .34854E-3
MEAN_MOTION_DDOT = 0

CCSDS_OMM_VERS = 2.0
CREATION_DATE  = 
ORIGINATOR     = 

OBJECT_NAME    = STARLINK-36866
OBJECT_ID      = 2026-035S
CENTER_NAME    = EARTH
REF_FRAME      = TEME
TIME_SYSTEM    = UTC
MEAN_ELEMENT_THEORY = SGP/SGP4

EPOCH          = 2026-03-19T22:00:00.999936
MEAN_MOTION    = 15.75193765
ECCENTRICITY   = .00014509
INCLINATION    = 97.2871
RA_OF_ASC_NODE = 11.8375
ARG_OF_PERICENTER = 91.4973
MEAN_ANOMALY   = 311.3065

EPHEMERIS_TYPE = 0
CLASSIFICATION_TYPE = U
NORAD_CAT_ID   = 67895
ELEMENT_SET_NO = 999
REV_AT_EPOCH   = 540
BSTAR          = .68576416E-4
MEAN_MOTION_DOT = .10113E-3
MEAN_MOTION_DDOT = 0

CCSDS_OMM_VERS = 2.0
CREATION_DATE  = 
ORIGINATOR     = 

OBJECT_NAME    = STARLINK-36877
OBJECT_ID      = 2026-035T
CENTER_NAME    = EARTH
REF_FRAME      = TEME
TIME_SYSTEM    = UTC
MEAN_ELEMENT_THEORY = SGP/SGP4

EPOCH          = 2026-03-19T18:28:39.925920
MEAN_MOTION    = 15.80995467
ECCENTRICITY   = .00016751
INCLINATION    = 97.2885
RA_OF_ASC_NODE = 11.7090
ARG_OF_PERICENTER = 135.1017
MEAN_ANOMALY   = 225.0387

EPHEMERIS_TYPE = 0
CLASSIFICATION_TYPE = U
NORAD_CAT_ID   = 67896
ELEMENT_SET_NO = 999
REV_AT_EPOCH   = 543
BSTAR          = .18806463E-2
MEAN_MOTION_DOT = .379297E-2
MEAN_MOTION_DDOT = 0

CCSDS_OMM_VERS = 2.0
CREATION_DATE  = 
ORIGINATOR     = 

OBJECT_NAME    = STARLINK-36870
OBJECT_ID      = 2026-035U
CENTER_NAME    = EARTH
REF_FRAME      = TEME
TIME_SYSTEM    = UTC
MEAN_ELEMENT_THEORY = SGP/SGP4

EPOCH          = 2026-03-19T18:25:24.945312
MEAN_MOTION    = 15.80930329
ECCENTRICITY   = .00027127
INCLINATION    = 97.2865
RA_OF_ASC_NODE = 11.7101
ARG_OF_PERICENTER = 119.1607
MEAN_ANOMALY   = 240.9933

EPHEMERIS_TYPE = 0
CLASSIFICATION_TYPE = U
NORAD_CAT_ID   = 67897
ELEMENT_SET_NO = 999
REV_AT_EPOCH   = 543
BSTAR          = .1149204E-2
MEAN_MOTION_DOT = .227009E-2
MEAN_MOTION_DDOT = 0

